     2.100          NAVIGATION                              RINEX VERSION / TYPE
fic2rin                                 05/02/2015 00:22:43 PGM / RUN BY / DATE
                                                            END OF HEADER
15 15  5  1 12  0  0.0 -.246709212661D-03 -.216004991671D-11  .000000000000D+00
     .560000000000D+02  .910000000000D+02  .538951020902D-08  .196149389957D+01
     .481680035591D-05  .713058200199D-02  .618584454060D-05  .515363462830D+04
     .475200000000D+06 -.191852450371D-06  .612808477796D+00  .156462192535D-06
     .933821608275D+00  .248125000000D+03  .391135250067D+00 -.856571393922D-08
     .281440294547D-09  .100000000000D+01  .184200000000D+04  .000000000000D+00
     .240000000000D+01  .000000000000D+00 -.107102096081D-07  .560000000000D+02
     .468006000000D+06  .400000000000D+01
16 15  5  1 12  0  0.0 -.133443158120D-03  .363797880709D-11  .000000000000D+00
     .920000000000D+02 -.328437500000D+02  .341371362345D-08 -.267934730367D+01
    -.175833702087D-05  .818743917625D-02  .124201178551D-04  .515355349922D+04
     .475200000000D+06 -.484287738800D-07  .281947119004D+01 -.409781932831D-07
     .990443293699D+00  .156281250000D+03  .285991235929D+00 -.742495213620D-08
     .453590322429D-10  .100000000000D+01  .184200000000D+04  .000000000000D+00
     .240000000000D+01  .000000000000D+00 -.102445483208D-07  .920000000000D+02
     .468006000000D+06  .400000000000D+01
17 15  5  1 12  0  0.0 -.169002451003D-03 -.181898940355D-11  .000000000000D+00
     .290000000000D+02  .442187500000D+02  .423339062343D-08  .269378883889D+01
     .228919088840D-05  .101005857578D-01  .701844692230D-05  .515375160217D+04
     .475200000000D+06  .521540641785D-07 -.243734754167D+01 -.113621354103D-06
     .972198249011D+00  .247843750000D+03 -.201012777432D+01 -.777996692399D-08
     .547165648788D-09  .100000000000D+01  .184200000000D+04  .000000000000D+00
     .240000000000D+01  .000000000000D+00 -.107102096081D-07  .290000000000D+02
     .468006000000D+06  .400000000000D+01
18 15  5  1 12  0  0.0  .398099422455D-03  .284217094304D-11  .000000000000D+00
     .380000000000D+02  .162500000000D+02  .513307095587D-08 -.210714105655D+01
     .750645995140D-06  .161177043337D-01  .107660889626D-04  .515360467339D+04
     .475200000000D+06  .229105353355D-06 -.406342564382D+00  .223517417908D-07
     .925422019816D+00  .147531250000D+03 -.196802692452D+01 -.799676166865D-08
    -.821462788651D-11  .100000000000D+01  .184200000000D+04  .000000000000D+00
     .485000000000D+01  .000000000000D+00 -.111758708954D-07  .380000000000D+02
     .468006000000D+06  .400000000000D+01
19 15  5  1 12  0  0.0 -.509082339704D-03 -.125055521494D-11  .000000000000D+00
     .640000000000D+02  .455312500000D+02  .452768859640D-08  .191124216176D+01
     .232458114624D-05  .112934862264D-01  .660866498947D-05  .515371876526D+04
     .475200000000D+06 -.210478901863D-06 -.238766132996D+01  .484287738800D-07
     .969230109650D+00  .257250000000D+03  .536433811227D+00 -.816212569958D-08
     .468233789531D-09  .100000000000D+01  .184200000000D+04  .000000000000D+00
     .240000000000D+01  .000000000000D+00 -.153668224812D-07  .640000000000D+02
     .468006000000D+06  .400000000000D+01
21 15  5  1 12  0  0.0 -.441884156317D-03 -.363797880709D-11  .000000000000D+00
     .102000000000D+03 -.341562500000D+02  .555880297503D-08 -.100518280777D+01
    -.124052166939D-05  .225452429149D-01  .524334609509D-05  .515356831551D+04
     .475200000000D+06 -.633299350739D-07 -.145000444203D+01  .528991222382D-06
     .933372932763D+00  .265156250000D+03 -.191445085167D+01 -.882858203159D-08
    -.160006664920D-09  .100000000000D+01  .184200000000D+04  .000000000000D+00
     .485000000000D+01  .000000000000D+00 -.116415321827D-07  .102000000000D+03
     .468006000000D+06  .400000000000D+01
22 15  5  1 12  0  0.0  .345658045262D-03  .420641299570D-11  .000000000000D+00
     .950000000000D+02  .787500000000D+01  .520843123778D-08 -.253668604002D+01
     .212341547012D-06  .785165722482D-02  .113248825073D-04  .515369747162D+04
     .475200000000D+06  .160187482834D-06 -.405126671723D+00 -.111758708954D-07
     .923231725701D+00  .138687500000D+03 -.205339484341D+01 -.817355474708D-08
    -.860750139413D-10  .100000000000D+01  .184200000000D+04  .000000000000D+00
     .340000000000D+01  .000000000000D+00 -.176951289177D-07  .950000000000D+02
     .468006000000D+06  .400000000000D+01
23 15  5  1 12  0  0.0 -.105489511043D-03 -.250111042988D-11  .000000000000D+00
     .270000000000D+02  .962187500000D+02  .513807116414D-08  .150329997985D+01
     .519864261150D-05  .100620159646D-01  .599212944508D-05  .515362880707D+04
     .475200000000D+06 -.447034835815D-07  .664628187289D+00  .165775418282D-06
     .948936929912D+00  .260875000000D+03 -.269141190715D+01 -.857785730219D-08
     .240009997380D-09  .100000000000D+01  .184200000000D+04  .000000000000D+00
     .240000000000D+01  .000000000000D+00 -.200234353542D-07  .270000000000D+02
     .468006000000D+06  .400000000000D+01
24 15  5  1 12  0  0.0 -.475570559502D-04 -.682121026330D-12  .000000000000D+00
     .114000000000D+03 -.510312500000D+02  .500235122515D-08  .750430042789D+00
    -.254251062870D-05  .322928372771D-02  .330619513988D-05  .515367502594D+04
     .475200000000D+06  .242143869400D-07  .169191149744D+01  .186264514923D-08
     .953416608897D+00  .307875000000D+03  .361538339980D+00 -.854928468345D-08
    -.388587614805D-09  .100000000000D+01  .184200000000D+04  .000000000000D+00
     .240000000000D+01  .000000000000D+00  .232830643654D-08  .114000000000D+03
     .468006000000D+06  .400000000000D+01
25 15  5  1 12  0  0.0 -.248895958066D-04 -.363797880709D-11  .000000000000D+00
     .500000000000D+02 -.425625000000D+02  .378158608967D-08 -.123862374707D+01
    -.227801501751D-05  .456525734626D-02  .111348927021D-04  .515369194221D+04
     .475200000000D+06  .162050127983D-06  .275450656473D+01 -.186264514923D-07
     .978374869080D+00  .175531250000D+03  .705608870482D+00 -.764246119633D-08
    -.145720355552D-09  .100000000000D+01  .184200000000D+04  .000000000000D+00
     .240000000000D+01  .000000000000D+00  .558793544769D-08  .500000000000D+02
     .468006000000D+06  .400000000000D+01
27 15  5  1 12  0  0.0  .688410364091D-04  .272848410532D-11  .000000000000D+00
     .450000000000D+02  .488750000000D+02  .445804283824D-08  .278688314206D+01
     .263936817646D-05  .237540504895D-02  .703707337379D-05  .515368787575D+04
     .475200000000D+06  .186264514923D-08 -.248494773022D+01 -.149011611938D-07
     .967117999729D+00  .246562500000D+03  .180033766192D+00 -.809033699501D-08
     .570738059245D-09  .100000000000D+01  .184200000000D+04  .000000000000D+00
     .240000000000D+01  .000000000000D+00  .139698386192D-08  .450000000000D+02
     .468006000000D+06  .400000000000D+01
28 15  5  1 12  0  0.0  .436790287495D-03  .261479726760D-11  .000000000000D+00
     .300000000000D+01 -.450000000000D+02  .331978113935D-08 -.275644904053D+01
    -.225938856602D-05  .195232707774D-01  .123456120491D-04  .515370090866D+04
     .475200000000D+06  .201165676117D-06  .282484415753D+01 -.111758708954D-07
     .989052485777D+00  .152250000000D+03 -.166470654473D+01 -.709279544340D-08
     .332156692802D-10  .100000000000D+01  .184200000000D+04  .000000000000D+00
     .240000000000D+01  .000000000000D+00 -.111758708954D-07  .300000000000D+01
     .468006000000D+06  .400000000000D+01
29 15  5  1 12  0  0.0  .607736874372D-03  .227373675443D-11  .000000000000D+00
     .560000000000D+02  .420937500000D+02  .432303721471D-08 -.892393144876D+00
     .219978392124D-05  .133081607055D-02  .668503344059D-05  .515376708603D+04
     .475200000000D+06 -.800937414169D-07 -.242800636940D+01  .186264514923D-08
     .973029214275D+00  .258000000000D+03 -.657166041123D+00 -.798068957061D-08
     .490020411317D-09  .100000000000D+01  .184200000000D+04  .000000000000D+00
     .240000000000D+01  .000000000000D+00 -.977888703346D-08  .560000000000D+02
     .468006000000D+06  .400000000000D+01
30 15  5  1 12  0  0.0 -.652093440294D-04  .454747350886D-11  .000000000000D+00
     .840000000000D+02 -.714062500000D+02  .483055835500D-08  .136235621275D+00
    -.395439565182D-05  .130738678854D-02  .392645597458D-05  .515374541092D+04
     .475200000000D+06  .540167093277D-07  .178208630181D+01  .223517417908D-07
     .955948507550D+00  .301312500000D+03  .284566605488D+01 -.844570894053D-08
    -.491806199988D-09  .100000000000D+01  .184200000000D+04  .000000000000D+00
     .240000000000D+01  .000000000000D+00  .325962901115D-08  .840000000000D+02
     .468006000000D+06  .400000000000D+01
31 15  5  1 12  0  0.0  .317119061947D-03 -.102318153949D-11  .000000000000D+00
     .370000000000D+02 -.568437500000D+02  .447518640948D-08 -.198595768174D+00
    -.304356217384D-05  .811731559224D-02  .428594648838D-05  .515376905251D+04
     .475200000000D+06  .298023223877D-07  .174000602063D+01 -.912696123123D-07
     .975092480287D+00  .306218750000D+03 -.516938717670D+00 -.832141804903D-08
    -.402159608705D-09  .100000000000D+01  .184200000000D+04  .000000000000D+00
     .240000000000D+01  .000000000000D+00 -.135041773319D-07  .370000000000D+02
     .468006000000D+06  .400000000000D+01
32 15  5  1 12  0  0.0 -.162328593433D-03  .954969436862D-11  .000000000000D+00
     .350000000000D+02  .270937500000D+02  .477162732886D-08  .445870101788D+00
     .146776437759D-05  .112682034960D-01  .119861215353D-04  .515378699112D+04
     .475200000000D+06  .217929482460D-06 -.304934405605D+00  .689178705215D-07
     .947369831585D+00  .145000000000D+03  .404431061491D-01 -.814748223248D-08
    -.825034365993D-10  .100000000000D+01  .184200000000D+04  .000000000000D+00
     .240000000000D+01  .000000000000D+00 -.372529029846D-08  .350000000000D+02
     .468006000000D+06  .400000000000D+01
